BEIJING 1               
1 28890U 05043A   26063.81797900  .00000935  00000+0  18992-3 0  9995
2 28890  98.2720 196.5551 0013430 246.8403 113.1384 14.63456133 85388
HUANJING 1A (HJ-1A)     
1 33320U 08041A   26063.84699656  .00003238  00000+0  39645-3 0  9999
2 33320  97.6623  53.7761 0020494 118.6441 241.6837 14.83701072942930
HUANJING 1B (HJ-1B)     
1 33321U 08041B   26063.83827095  .00000893  00000+0  11471-3 0  9990
2 33321  97.6471  57.2442 0036676 163.4861 196.7557 14.83086091942947
YAOGAN-4                
1 33446U 08061A   26063.38958534  .00002033  00000+0  25650-3 0  9995
2 33446  97.9245 357.7324 0015616  55.2251 305.0430 14.82959497930137
DEIMOS-1                
1 35681U 09041A   26063.86428608  .00000781  00000+0  12290-3 0  9998
2 35681  97.7241 225.6947 0002018 124.7810 235.3590 14.75105243891506
UK-DMC 2                
1 35683U 09041C   26063.82227922  .00002020  00000+0  30173-3 0  9990
2 35683  97.8641 201.4566 0001087  89.2660 270.8674 14.75840632891173
DMC3-FM1                
1 40715U 15032A   26063.87887192  .00001122  00000+0  13559-3 0  9996
2 40715  97.6624 293.0552 0006803  46.5649 313.6132 14.85605549574428
DMC3-FM2                
1 40716U 15032B   26063.90121962  .00000614  00000+0  76880-4 0  9999
2 40716  97.6679 294.5785 0007327  49.9790 310.2067 14.85606311574427
DMC3-FM3                
1 40717U 15032C   26063.85693706  .00000994  00000+0  12074-3 0  9999
2 40717  97.6733 296.2216 0006536  51.6789 308.5013 14.85603737574426
