[{"OBJECT_NAME":"BEIJING 1","OBJECT_ID":"2005-043A","EPOCH":"2026-03-04T19:37:53.385600","MEAN_MOTION":14.63456133,"ECCENTRICITY":0.001343,"INCLINATION":98.272,"RA_OF_ASC_NODE":196.5551,"ARG_OF_PERICENTER":246.8403,"MEAN_ANOMALY":113.1384,"EPHEMERIS_TYPE":0,"CLASSIFICATION_TYPE":"U","NORAD_CAT_ID":28890,"ELEMENT_SET_NO":999,"REV_AT_EPOCH":8538,"BSTAR":0.00018992,"MEAN_MOTION_DOT":9.35e-6,"MEAN_MOTION_DDOT":0},{"OBJECT_NAME":"HUANJING 1A (HJ-1A)","OBJECT_ID":"2008-041A","EPOCH":"2026-03-04T20:19:40.502784","MEAN_MOTION":14.83701072,"ECCENTRICITY":0.0020494,"INCLINATION":97.6623,"RA_OF_ASC_NODE":53.7761,"ARG_OF_PERICENTER":118.6441,"MEAN_ANOMALY":241.6837,"EPHEMERIS_TYPE":0,"CLASSIFICATION_TYPE":"U","NORAD_CAT_ID":33320,"ELEMENT_SET_NO":999,"REV_AT_EPOCH":94293,"BSTAR":0.00039645,"MEAN_MOTION_DOT":3.238e-5,"MEAN_MOTION_DDOT":0},{"OBJECT_NAME":"HUANJING 1B (HJ-1B)","OBJECT_ID":"2008-041B","EPOCH":"2026-03-04T20:07:06.610080","MEAN_MOTION":14.83086091,"ECCENTRICITY":0.0036676,"INCLINATION":97.6471,"RA_OF_ASC_NODE":57.2442,"ARG_OF_PERICENTER":163.4861,"MEAN_ANOMALY":196.7557,"EPHEMERIS_TYPE":0,"CLASSIFICATION_TYPE":"U","NORAD_CAT_ID":33321,"ELEMENT_SET_NO":999,"REV_AT_EPOCH":94294,"BSTAR":0.00011471,"MEAN_MOTION_DOT":8.93e-6,"MEAN_MOTION_DDOT":0},{"OBJECT_NAME":"YAOGAN-4","OBJECT_ID":"2008-061A","EPOCH":"2026-03-04T09:21:00.173376","MEAN_MOTION":14.82959497,"ECCENTRICITY":0.0015616,"INCLINATION":97.9245,"RA_OF_ASC_NODE":357.7324,"ARG_OF_PERICENTER":55.2251,"MEAN_ANOMALY":305.043,"EPHEMERIS_TYPE":0,"CLASSIFICATION_TYPE":"U","NORAD_CAT_ID":33446,"ELEMENT_SET_NO":999,"REV_AT_EPOCH":93013,"BSTAR":0.00025649904,"MEAN_MOTION_DOT":2.033e-5,"MEAN_MOTION_DDOT":0},{"OBJECT_NAME":"DEIMOS-1","OBJECT_ID":"2009-041A","EPOCH":"2026-03-04T20:44:34.317312","MEAN_MOTION":14.75105243,"ECCENTRICITY":0.0002018,"INCLINATION":97.7241,"RA_OF_ASC_NODE":225.6947,"ARG_OF_PERICENTER":124.781,"MEAN_ANOMALY":235.359,"EPHEMERIS_TYPE":0,"CLASSIFICATION_TYPE":"U","NORAD_CAT_ID":35681,"ELEMENT_SET_NO":999,"REV_AT_EPOCH":89150,"BSTAR":0.0001229,"MEAN_MOTION_DOT":7.81e-6,"MEAN_MOTION_DDOT":0},{"OBJECT_NAME":"UK-DMC 2","OBJECT_ID":"2009-041C","EPOCH":"2026-03-04T19:44:04.924608","MEAN_MOTION":14.75840632,"ECCENTRICITY":0.0001087,"INCLINATION":97.8641,"RA_OF_ASC_NODE":201.4566,"ARG_OF_PERICENTER":89.266,"MEAN_ANOMALY":270.8674,"EPHEMERIS_TYPE":0,"CLASSIFICATION_TYPE":"U","NORAD_CAT_ID":35683,"ELEMENT_SET_NO":999,"REV_AT_EPOCH":89117,"BSTAR":0.00030173,"MEAN_MOTION_DOT":2.02e-5,"MEAN_MOTION_DDOT":0},{"OBJECT_NAME":"DMC3-FM1","OBJECT_ID":"2015-032A","EPOCH":"2026-03-04T21:05:34.533888","MEAN_MOTION":14.85605549,"ECCENTRICITY":0.0006803,"INCLINATION":97.6624,"RA_OF_ASC_NODE":293.0552,"ARG_OF_PERICENTER":46.5649,"MEAN_ANOMALY":313.6132,"EPHEMERIS_TYPE":0,"CLASSIFICATION_TYPE":"U","NORAD_CAT_ID":40715,"ELEMENT_SET_NO":999,"REV_AT_EPOCH":57442,"BSTAR":0.00013559,"MEAN_MOTION_DOT":1.122e-5,"MEAN_MOTION_DDOT":0},{"OBJECT_NAME":"DMC3-FM2","OBJECT_ID":"2015-032B","EPOCH":"2026-03-04T21:37:45.375168","MEAN_MOTION":14.85606311,"ECCENTRICITY":0.0007327,"INCLINATION":97.6679,"RA_OF_ASC_NODE":294.5785,"ARG_OF_PERICENTER":49.979,"MEAN_ANOMALY":310.2067,"EPHEMERIS_TYPE":0,"CLASSIFICATION_TYPE":"U","NORAD_CAT_ID":40716,"ELEMENT_SET_NO":999,"REV_AT_EPOCH":57442,"BSTAR":7.688e-5,"MEAN_MOTION_DOT":6.14e-6,"MEAN_MOTION_DDOT":0},{"OBJECT_NAME":"DMC3-FM3","OBJECT_ID":"2015-032C","EPOCH":"2026-03-04T20:33:59.361984","MEAN_MOTION":14.85603737,"ECCENTRICITY":0.0006536,"INCLINATION":97.6733,"RA_OF_ASC_NODE":296.2216,"ARG_OF_PERICENTER":51.6789,"MEAN_ANOMALY":308.5013,"EPHEMERIS_TYPE":0,"CLASSIFICATION_TYPE":"U","NORAD_CAT_ID":40717,"ELEMENT_SET_NO":999,"REV_AT_EPOCH":57442,"BSTAR":0.00012074,"MEAN_MOTION_DOT":9.94e-6,"MEAN_MOTION_DDOT":0}]
